INNOSAT 3 (RS92S0)      
1 64894U 25155U   26176.54289602  .00047029  00000+0  10146-2 0  9992
2 64894  97.4481 148.2414 0007645 132.0523 228.1377 15.44388695 82258
KNACKSAT-2              
1 67683U 98067XZ  26176.42038818  .00054321  00000+0  64307-3 0  9993
2 67683  51.6277 253.0425 0008708 252.4154 107.5888 15.60671397 21563
